[{"spaceTrack":{"CCSDS_OMM_VERS":"2.0","COMMENT":"GENERATED VIA SPACE-TRACK.ORG API","CREATION_DATE":"2021-05-12T14:46:11","ORIGINATOR":"18 SPCS","OBJECT_NAME":"STARLINK-1402","OBJECT_ID":"2020-035AE","CENTER_NAME":"EARTH","REF_FRAME":"TEME","TIME_SYSTEM":"UTC","MEAN_ELEMENT_THEORY":"SGP4","EPOCH":"2021-05-12T05:41:29.010912","MEAN_MOTION":15.06408285,"ECCENTRICITY":0.0002015,"INCLINATION":53.0588,"RA_OF_ASC_NODE":48.5738,"ARG_OF_PERICENTER":85.9975,"MEAN_ANOMALY":274.1244,"EPHEMERIS_TYPE":0,"CLASSIFICATION_TYPE":"U","NORAD_CAT_ID":45685,"ELEMENT_SET_NO":999,"REV_AT_EPOCH":5282,"BSTAR":-0.000057908,"MEAN_MOTION_DOT":-0.00001144,"MEAN_MOTION_DDOT":0,"SEMIMAJOR_AXIS":6925.323,"PERIOD":95.592,"APOAPSIS":548.584,"PERIAPSIS":545.793,"OBJECT_TYPE":"PAYLOAD","RCS_SIZE":"LARGE","COUNTRY_CODE":"US","LAUNCH_DATE":"2020-06-04","SITE":"AFETR","DECAY_DATE":null,"DECAYED":0,"FILE":3035541,"GP_ID":177114430,"TLE_LINE0":"0 STARLINK-1402","TLE_LINE1":"1 45685U 20035AE  21132.23714133 -.00001144  00000-0 -57908-4 0  9996","TLE_LINE2":"2 45685  53.0588  48.5738 0002015  85.9975 274.1244 15.06408285 52825"},"version":"v1.0","launch":"5eb87d45ffd86e000604b387","longitude":-77.59708952386863,"latitude":30.41187085029298,"height_km":548.0246344009192,"velocity_kms":7.59251418212809,"id":"5eed7716096e5900069857cd"},{"spaceTrack":{"CCSDS_OMM_VERS":"2.0","COMMENT":"GENERATED VIA SPACE-TRACK.ORG API","CREATION_DATE":"2021-05-12T04:44:40","ORIGINATOR":"18 SPCS","OBJECT_NAME":"STARLINK-1394","OBJECT_ID":"2020-035Y","CENTER_NAME":"EARTH","REF_FRAME":"TEME","TIME_SYSTEM":"UTC","MEAN_ELEMENT_THEORY":"SGP4","EPOCH":"2021-05-11T19:20:27.981024","MEAN_MOTION":15.06405421,"ECCENTRICITY":0.0000811,"INCLINATION":53.058,"RA_OF_ASC_NODE":50.4974,"ARG_OF_PERICENTER":89.6802,"MEAN_ANOMALY":270.428,"EPHEMERIS_TYPE":0,"CLASSIFICATION_TYPE":"U","NORAD_CAT_ID":45679,"ELEMENT_SET_NO":999,"REV_AT_EPOCH":5316,"BSTAR":-0.000075314,"MEAN_MOTION_DOT":-0.00001403,"MEAN_MOTION_DDOT":0,"SEMIMAJOR_AXIS":6925.332,"PERIOD":95.592,"APOAPSIS":547.759,"PERIAPSIS":546.635,"OBJECT_TYPE":"PAYLOAD","RCS_SIZE":"LARGE","COUNTRY_CODE":"US","LAUNCH_DATE":"2020-06-04","SITE":"AFETR","DECAY_DATE":null,"DECAYED":0,"FILE":3035157,"GP_ID":177102290,"TLE_LINE0":"0 STARLINK-1394","TLE_LINE1":"1 45679U 20035Y   21131.80587941 -.00001403  00000-0 -75314-4 0  9995","TLE_LINE2":"2 45679  53.0580  50.4974 0000811  89.6802 270.4280 15.06405421 53162"},"version":"v1.0","launch":"5eb87d45ffd86e000604b387","longitude":102.61164036147014,"latitude":-30.612561796866643,"height_km":556.8944833278547,"velocity_kms":7.582840159246297,"id":"5eed7716096e5900069857ce"},{"spaceTrack":{"CCSDS_OMM_VERS":"2.0","COMMENT":"GENERATED VIA SPACE-TRACK.ORG API","CREATION_DATE":"2021-05-12T07:36:10","ORIGINATOR":"18 SPCS","OBJECT_NAME":"STARLINK-1401","OBJECT_ID":"2020-035AD","CENTER_NAME":"EARTH","REF_FRAME":"TEME","TIME_SYSTEM":"UTC","MEAN_ELEMENT_THEORY":"SGP4","EPOCH":"2021-05-12T04:11:14.633952","MEAN_MOTION":15.06405466,"ECCENTRICITY":0.0001678,"INCLINATION":53.0596,"RA_OF_ASC_NODE":48.8516,"ARG_OF_PERICENTER":73.8737,"MEAN_ANOMALY":286.2437,"EPHEMERIS_TYPE":0,"CLASSIFICATION_TYPE":"U","NORAD_CAT_ID":45684,"ELEMENT_SET_NO":999,"REV_AT_EPOCH":5281,"BSTAR":0.000070407,"MEAN_MOTION_DOT":0.00000767,"MEAN_MOTION_DDOT":0,"SEMIMAJOR_AXIS":6925.332,"PERIOD":95.592,"APOAPSIS":548.359,"PERIAPSIS":546.035,"OBJECT_TYPE":"PAYLOAD","RCS_SIZE":"LARGE","COUNTRY_CODE":"US","LAUNCH_DATE":"2020-06-04","SITE":"AFETR","DECAY_DATE":null,"DECAYED":0,"FILE":3035298,"GP_ID":177109538,"TLE_LINE0":"0 STARLINK-1401","TLE_LINE1":"1 45684U 20035AD  21132.17447493  .00000767  00000-0  70407-4 0  9997","TLE_LINE2":"2 45684  53.0596  48.8516 0001678  73.8737 286.2437 15.06405466 52811"},"version":"v1.0","launch":"5eb87d45ffd86e000604b387","longitude":-92.30248719315207,"latitude":14.665267915409196,"height_km":546.7217946511573,"velocity_kms":7.591454767015973,"id":"5eed7716096e5900069857cf"},{"spaceTrack":{"CCSDS_OMM_VERS":"2.0","COMMENT":"GENERATED VIA SPACE-TRACK.ORG API","CREATION_DATE":"2021-05-12T04:44:40","ORIGINATOR":"18 SPCS","OBJECT_NAME":"STARLINK-1396","OBJECT_ID":"2020-035AA","CENTER_NAME":"EARTH","REF_FRAME":"TEME","TIME_SYSTEM":"UTC","MEAN_ELEMENT_THEORY":"SGP4","EPOCH":"2021-05-11T19:25:47.091648","MEAN_MOTION":15.06404692,"ECCENTRICITY":0.0001585,"INCLINATION":53.0566,"RA_OF_ASC_NODE":50.4992,"ARG_OF_PERICENTER":71.4089,"MEAN_ANOMALY":288.7072,"EPHEMERIS_TYPE":0,"CLASSIFICATION_TYPE":"U","NORAD_CAT_ID":45681,"ELEMENT_SET_NO":999,"REV_AT_EPOCH":5316,"BSTAR":-0.000062726,"MEAN_MOTION_DOT":-0.00001216,"MEAN_MOTION_DDOT":0,"SEMIMAJOR_AXIS":6925.334,"PERIOD":95.592,"APOAPSIS":548.297,"PERIAPSIS":546.102,"OBJECT_TYPE":"PAYLOAD","RCS_SIZE":"LARGE","COUNTRY_CODE":"US","LAUNCH_DATE":"2020-06-04","SITE":"AFETR","DECAY_DATE":null,"DECAYED":0,"FILE":3035157,"GP_ID":177103792,"TLE_LINE0":"0 STARLINK-1396","TLE_LINE1":"1 45681U 20035AA  21131.80957282 -.00001216  00000-0 -62726-4 0  9992","TLE_LINE2":"2 45681  53.0566  50.4992 0001585  71.4089 288.7072 15.06404692 53164"},"version":"v1.0","launch":"5eb87d45ffd86e000604b387","longitude":88.25794686629483,"latitude":-15.398441545084182,"height_km":551.9531306047029,"velocity_kms":7.585810669451496,"id":"5eed7716096e5900069857d0"},{"spaceTrack":{"CCSDS_OMM_VERS":"2.0","COMMENT":"GENERATED VIA SPACE-TRACK.ORG API","CREATION_DATE":"2021-05-12T07:36:10","ORIGINATOR":"18 SPCS","OBJECT_NAME":"STARLINK-1441","OBJECT_ID":"2020-035B","CENTER_NAME":"EARTH","REF_FRAME":"TEME","TIME_SYSTEM":"UTC","MEAN_ELEMENT_THEORY":"SGP4","EPOCH":"2021-05-12T04:09:55.729152","MEAN_MOTION":15.06396264,"ECCENTRICITY":0.0001579,"INCLINATION":53.0569,"RA_OF_ASC_NODE":58.8617,"ARG_OF_PERICENTER":73.3901,"MEAN_ANOMALY":286.7261,"EPHEMERIS_TYPE":0,"CLASSIFICATION_TYPE":"U","NORAD_CAT_ID":45658,"ELEMENT_SET_NO":999,"REV_AT_EPOCH":5267,"BSTAR":-0.000042855,"MEAN_MOTION_DOT":-0.0000092,"MEAN_MOTION_DDOT":0,"SEMIMAJOR_AXIS":6925.36,"PERIOD":95.592,"APOAPSIS":548.319,"PERIAPSIS":546.131,"OBJECT_TYPE":"PAYLOAD","RCS_SIZE":"LARGE","COUNTRY_CODE":"US","LAUNCH_DATE":"2020-06-04","SITE":"AFETR","DECAY_DATE":null,"DECAYED":0,"FILE":3035306,"GP_ID":177109737,"TLE_LINE0":"0 STARLINK-1441","TLE_LINE1":"1 45658U 20035B   21132.17356168 -.00000920  00000-0 -42855-4 0  9995","TLE_LINE2":"2 45658  53.0569  58.8617 0001579  73.3901 286.7261 15.06396264 52672"},"version":"v1.0","launch":"5eb87d45ffd86e000604b387","longitude":-78.74161703435382,"latitude":18.94677644397895,"height_km":546.918146928585,"velocity_kms":7.591793327437138,"id":"5eed7716096e5900069857d1"},{"spaceTrack":{"CCSDS_OMM_VERS":"2.0","COMMENT":"GENERATED VIA SPACE-TRACK.ORG API","CREATION_DATE":"2021-05-12T14:46:11","ORIGINATOR":"18 SPCS","OBJECT_NAME":"STARLINK-1393","OBJECT_ID":"2020-035X","CENTER_NAME":"EARTH","REF_FRAME":"TEME","TIME_SYSTEM":"UTC","MEAN_ELEMENT_THEORY":"SGP4","EPOCH":"2021-05-12T11:10:34.230144","MEAN_MOTION":15.06401125,"ECCENTRICITY":0.0001624,"INCLINATION":53.0592,"RA_OF_ASC_NODE":47.5404,"ARG_OF_PERICENTER":77.7463,"MEAN_ANOMALY":282.3708,"EPHEMERIS_TYPE":0,"CLASSIFICATION_TYPE":"U","NORAD_CAT_ID":45678,"ELEMENT_SET_NO":999,"REV_AT_EPOCH":5285,"BSTAR":0.000072935,"MEAN_MOTION_DOT":0.00000805,"MEAN_MOTION_DDOT":0,"SEMIMAJOR_AXIS":6925.345,"PERIOD":95.592,"APOAPSIS":548.335,"PERIAPSIS":546.085,"OBJECT_TYPE":"PAYLOAD","RCS_SIZE":"LARGE","COUNTRY_CODE":"US","LAUNCH_DATE":"2020-06-04","SITE":"AFETR","DECAY_DATE":null,"DECAYED":0,"FILE":3035553,"GP_ID":177114632,"TLE_LINE0":"0 STARLINK-1393","TLE_LINE1":"1 45678U 20035X   21132.46567396  .00000805  00000-0  72935-4 0  9998","TLE_LINE2":"2 45678  53.0592  47.5404 0001624  77.7463 282.3708 15.06401125 52852"},"version":"v1.0","launch":"5eb87d45ffd86e000604b387","longitude":121.55806288016166,"latitude":-43.49487433390055,"height_km":562.8571329167444,"velocity_kms":7.579091152132434,"id":"5eed7716096e5900069857d2"},{"spaceTrack":{"CCSDS_OMM_VERS":"2.0","COMMENT":"GENERATED VIA SPACE-TRACK.ORG API","CREATION_DATE":"2021-05-12T04:44:40","ORIGINATOR":"18 SPCS","OBJECT_NAME":"STARLINK-1347","OBJECT_ID":"2020-025BH","CENTER_NAME":"EARTH","REF_FRAME":"TEME","TIME_SYSTEM":"UTC","MEAN_ELEMENT_THEORY":"SGP4","EPOCH":"2021-05-11T21:46:26.920992","MEAN_MOTION":15.06397963,"ECCENTRICITY":0.0003049,"INCLINATION":53.0541,"RA_OF_ASC_NODE":70.0577,"ARG_OF_PERICENTER":73.2894,"MEAN_ANOMALY":286.8429,"EPHEMERIS_TYPE":0,"CLASSIFICATION_TYPE":"U","NORAD_CAT_ID":45586,"ELEMENT_SET_NO":999,"REV_AT_EPOCH":5980,"BSTAR":-0.000079213,"MEAN_MOTION_DOT":-0.00001462,"MEAN_MOTION_DDOT":0,"SEMIMAJOR_AXIS":6925.355,"PERIOD":95.592,"APOAPSIS":549.331,"PERIAPSIS":545.108,"OBJECT_TYPE":"PAYLOAD","RCS_SIZE":"LARGE","COUNTRY_CODE":"US","LAUNCH_DATE":"2020-04-22","SITE":"AFETR","DECAY_DATE":null,"DECAYED":0,"FILE":3035157,"GP_ID":177102781,"TLE_LINE0":"0 STARLINK-1347","TLE_LINE1":"1 45586U 20025BH  21131.90725603 -.00001462  00000-0 -79213-4 0  9998","TLE_LINE2":"2 45586  53.0541  70.0577 0003049  73.2894 286.8429 15.06397963 59803"},"version":"v1.0","launch":"5eb87d44ffd86e000604b386","longitude":-65.28085864335527,"latitude":22.815717211988616,"height_km":546.5043260353132,"velocity_kms":7.59282829759256,"id":"5eed7716096e5900069857d3"}]